OBJECT_NAME,OBJECT_ID,EPOCH,MEAN_MOTION,ECCENTRICITY,INCLINATION,RA_OF_ASC_NODE,ARG_OF_PERICENTER,MEAN_ANOMALY,EPHEMERIS_TYPE,CLASSIFICATION_TYPE,NORAD_CAT_ID,ELEMENT_SET_NO,REV_AT_EPOCH,BSTAR,MEAN_MOTION_DOT,MEAN_MOTION_DDOT
JUPITER 3 (ECHOSTAR 24),2023-108A,2026-07-05T11:27:03.631968,1.00269542,.00011795,0.0227,34.3575,65.0207,260.6352,0,U,57479,999,1083,0,0,0
GALAXY 37 (G-37),2023-112A,2026-07-06T01:12:50.556096,1.00270869,.00018247,0.0225,35.0044,79.9404,60.3045,0,U,57493,999,1073,0,0,0
LUDI TANCE-4 01A,2023-120A,2026-07-06T00:31:46.992288,1.00265525,.00015698,15.0924,193.5073,25.2044,162.6777,0,U,57624,999,1073,0,-.157E-5,0
TJS-10,2023-169A,2026-07-02T18:00:47.329920,1.00269643,.0004215,2.5821,80.3140,104.6482,98.4495,0,U,58204,999,969,0,-.239E-5,0
ZHONGXING-6E,2023-172A,2026-07-06T07:29:57.953184,1.00266276,.00022492,0.0141,31.3627,76.5121,44.4262,0,U,58253,999,985,0,0,0
YAOGAN-41,2023-197A,2026-07-06T07:32:05.249760,1.00271007,.00143542,3.0954,313.4160,197.2376,9.8795,0,U,58582,999,951,0,-.347E-5,0
OVZON-3,2024-003A,2026-07-06T03:48:41.552064,1.00271981,.00000589,0.0145,84.8788,126.1602,189.9755,0,U,58698,999,763,0,.66E-6,0
INSAT-3DS,2024-033A,2026-07-06T00:29:47.184000,1.00272893,.00011845,0.0788,95.9943,16.9301,260.5933,0,U,58990,999,4725,0,-.142E-5,0
MERAH PUTIH 2,2024-035A,2026-07-06T05:46:26.069664,1.00268827,.00010256,0.0180,37.2356,77.6634,8.8956,0,U,58995,999,878,0,0,0
TJS-11,2024-037A,2026-07-05T21:13:11.601984,1.00266921,.0003051,4.1755,327.2955,131.7151,255.7536,0,U,59020,999,877,0,-.349E-5,0
HULIANWAN GAOGUI-01 (HG-01),2024-040A,2026-07-06T03:41:19.757760,1.00274181,.00024247,0.0738,329.1386,78.5694,325.4248,0,U,59069,999,751,0,.17E-5,0
EUTELSAT 36D,2024-059A,2026-07-06T00:16:33.451392,1.00273492,.00003012,0.0191,44.0630,127.5159,152.4136,0,U,59346,999,833,0,0,0
PAKSAT-MM1,2024-104A,2026-07-06T03:42:34.638048,1.00266612,.00023073,0.0409,191.6499,264.9920,281.3429,0,U,59915,999,771,0,.168E-5,0
ASTRA 1P (SES-24),2024-115A,2026-07-06T01:54:31.913856,1.00264546,.00011507,0.0585,336.3698,254.9992,100.5398,0,U,60086,999,738,0,.133E-5,0
GOES 19,2024-119A,2026-07-06T03:11:32.056224,1.00272666,.00004199,0.0340,180.2301,350.5672,86.0110,0,U,60133,999,715,0,-.234E-5,0
ZHONGXING-3A,2024-122A,2026-07-06T00:12:10.009152,1.00270691,.0001757,0.0327,135.8480,7.7125,245.0440,0,U,60179,999,749,0,-.299E-5,0
TURKSAT 6A,2024-127A,2026-07-06T03:43:42.030912,1.00271339,.00027656,0.0133,179.8916,338.0870,224.0801,0,U,60233,999,720,0,0,0
HULIANWAN GAOGUI-02 (HG-02),2024-135A,2026-07-06T05:58:02.457120,1.00265820,.00067216,0.0457,351.8062,18.4522,156.5077,0,U,60327,999,769,0,-.161E-5,0
ZHONGXING-4A,2024-151A,2026-07-06T05:48:03.413952,1.00272726,.00001811,1.2679,270.5803,224.7477,354.1403,0,U,60606,999,694,0,-.347E-5,0
HULIANWAN GAOGUI-03 (HG-03),2024-181A,2026-07-06T06:35:03.261984,1.00267243,.00012405,0.0491,353.7632,102.9591,209.1658,0,U,61503,999,701,0,-.226E-5,0
DSN-3 (KIRAMEKI-3),2024-198A,2026-07-06T04:12:39.254976,1.00270341,.00009699,0.0358,261.9946,234.6432,354.7476,0,U,61733,999,611,0,-.236E-5,0
KOREASAT 6A,2024-206A,2026-07-06T00:39:23.762304,1.00272622,.00009314,0.0257,100.8565,342.5762,326.4406,0,U,61910,999,602,0,-.348E-5,0
OPTUS-X (ADS-01),2024-212A,2026-07-06T02:33:28.181088,1.00271415,.00023963,0.0113,321.3480,183.8158,333.7082,0,U,62006,999,595,0,-.129E-5,0
GSAT-N2 (GSAT-20),2024-214A,2026-07-06T03:51:03.825216,1.00272959,.00019595,0.0768,96.8745,1.4076,311.5988,0,U,62028,999,608,0,-.5E-7,0
SXM-9,2024-234A,2026-07-06T03:07:26.498784,1.00273938,.00050372,0.0220,318.2097,0.9794,286.6483,0,U,62259,999,576,0,-.191E-5,0
TJS-12,2024-246A,2026-07-06T04:13:24.182976,1.00271911,.00020253,0.6316,300.9691,102.7345,90.3718,0,U,62374,999,575,0,-.216E-5,0
NUVIEW ALPHA,2024-252B,2026-07-06T03:07:56.451072,1.00271264,.00009527,0.0484,32.5696,56.3248,159.0957,0,U,62455,999,401,0,-.201E-5,0
AGILA,2024-252C,2026-07-05T21:24:25.524576,1.00270699,.00011314,0.0602,123.3404,14.2655,259.5348,0,U,62456,999,534,0,-.168E-5,0
NUVIEW BRAVO,2024-252D,2026-07-06T03:07:56.451072,1.00271680,.00017135,0.0703,158.1999,351.2692,98.5263,0,U,62457,999,398,0,-.201E-5,0
THURAYA-4,2025-001A,2026-07-05T22:36:22.251744,1.00272958,.00000461,0.0190,68.4043,75.5010,163.4164,0,U,62483,999,436,0,.153E-5,0
SHIJIAN-25 (SJ-25),2025-002A,2026-07-02T18:21:01.463328,1.00272141,.005163,5.1479,61.0664,174.7980,87.5189,0,U,62485,999,551,0,-.341E-5,0
TJS-14,2025-017A,2026-07-06T07:02:15.654336,1.00272661,.00015396,0.7417,296.9135,290.1403,181.1683,0,U,62804,999,546,0,.13E-5,0
