JUPITER 3 (ECHOSTAR 24) 
1 57479U 23108A   26186.47712537  .00000000  00000+0  00000+0 0  9993
2 57479   0.0227  34.3575 0001179  65.0207 260.6352  1.00269542 10835
GALAXY 37 (G-37)        
1 57493U 23112A   26187.05058514  .00000000  00000+0  00000+0 0  9997
2 57493   0.0225  35.0044 0001824  79.9404  60.3045  1.00270869 10735
LUDI TANCE-4 01A        
1 57624U 23120A   26187.02207167 -.00000157  00000+0  00000+0 0  9993
2 57624  15.0924 193.5073 0001569  25.2044 162.6777  1.00265525 10736
TJS-10                  
1 58204U 23169A   26183.75054780 -.00000239  00000+0  00000+0 0  9999
2 58204   2.5821  80.3140 0004215 104.6482  98.4495  1.00269643  9696
ZHONGXING-6E            
1 58253U 23172A   26187.31247631  .00000000  00000+0  00000+0 0  9997
2 58253   0.0141  31.3627 0002249  76.5121  44.4262  1.00266276  9856
YAOGAN-41               
1 58582U 23197A   26187.31394965 -.00000347  00000+0  00000+0 0  9997
2 58582   3.0954 313.4160 0014354 197.2376   9.8795  1.00271007  9512
OVZON-3                 
1 58698U 24003A   26187.15881426  .00000066  00000+0  00000+0 0  9994
2 58698   0.0145  84.8788 0000058 126.1602 189.9755  1.00271981  7631
INSAT-3DS               
1 58990U 24033A   26187.02068500 -.00000142  00000+0  00000+0 0  9994
2 58990   0.0788  95.9943 0001184  16.9301 260.5933  1.00272893 47257
MERAH PUTIH 2           
1 58995U 24035A   26187.24057951  .00000000  00000+0  00000+0 0  9995
2 58995   0.0180  37.2356 0001025  77.6634   8.8956  1.00268827  8787
TJS-11                  
1 59020U 24037A   26186.88416206 -.00000349  00000+0  00000+0 0  9995
2 59020   4.1755 327.2955 0003051 131.7151 255.7536  1.00266921  8773
HULIANWAN GAOGUI-01 (H*)
1 59069U 24040A   26187.15370090  .00000170  00000+0  00000+0 0  9994
2 59069   0.0738 329.1386 0002424  78.5694 325.4248  1.00274181  7517
EUTELSAT 36D            
1 59346U 24059A   26187.01149828  .00000000  00000+0  00000+0 0  9992
2 59346   0.0191  44.0630 0000301 127.5159 152.4136  1.00273492  8335
PAKSAT-MM1              
1 59915U 24104A   26187.15456757  .00000168  00000+0  00000+0 0  9997
2 59915   0.0409 191.6499 0002307 264.9920 281.3429  1.00266612  7715
ASTRA 1P (SES-24)       
1 60086U 24115A   26187.07953604  .00000133  00000+0  00000+0 0  9996
2 60086   0.0585 336.3698 0001150 254.9992 100.5398  1.00264546  7387
GOES 19                 
1 60133U 24119A   26187.13300991 -.00000234  00000+0  00000+0 0  9998
2 60133   0.0340 180.2301 0000419 350.5672  86.0110  1.00272666  7158
ZHONGXING-3A            
1 60179U 24122A   26187.00844918 -.00000299  00000+0  00000+0 0  9991
2 60179   0.0327 135.8480 0001757   7.7125 245.0440  1.00270691  7493
TURKSAT 6A              
1 60233U 24127A   26187.15534758  .00000000  00000+0  00000+0 0  9990
2 60233   0.0133 179.8916 0002765 338.0870 224.0801  1.00271339  7205
HULIANWAN GAOGUI-02 (H*)
1 60327U 24135A   26187.24863955 -.00000161  00000+0  00000+0 0  9996
2 60327   0.0457 351.8062 0006721  18.4522 156.5077  1.00265820  7696
ZHONGXING-4A            
1 60606U 24151A   26187.24170618 -.00000347  00000+0  00000+0 0  9997
2 60606   1.2679 270.5803 0000181 224.7477 354.1403  1.00272726  6949
HULIANWAN GAOGUI-03 (H*)
1 61503U 24181A   26187.27434331 -.00000226  00000+0  00000+0 0  9991
2 61503   0.0491 353.7632 0001240 102.9591 209.1658  1.00267243  7018
DSN-3 (KIRAMEKI-3)      
1 61733U 24198A   26187.17545434 -.00000236  00000+0  00000+0 0  9991
2 61733   0.0358 261.9946 0000969 234.6432 354.7476  1.00270341  6115
KOREASAT 6A             
1 61910U 24206A   26187.02735836 -.00000348  00000+0  00000+0 0  9993
2 61910   0.0257 100.8565 0000931 342.5762 326.4406  1.00272622  6025
OPTUS-X (ADS-01)        
1 62006U 24212A   26187.10657617 -.00000129  00000+0  00000+0 0  9993
2 62006   0.0113 321.3480 0002396 183.8158 333.7082  1.00271415  5952
GSAT-N2 (GSAT-20)       
1 62028U 24214A   26187.16046094 -.00000005  00000+0  00000+0 0  9999
2 62028   0.0768  96.8745 0001959   1.4076 311.5988  1.00272959  6086
SXM-9                   
1 62259U 24234A   26187.13016781 -.00000191  00000+0  00000+0 0  9990
2 62259   0.0220 318.2097 0005037   0.9794 286.6483  1.00273938  5762
TJS-12                  
1 62374U 24246A   26187.17597434 -.00000216  00000+0  00000+0 0  9992
2 62374   0.6316 300.9691 0002025 102.7345  90.3718  1.00271911  5756
NUVIEW ALPHA            
1 62455U 24252B   26187.13051448 -.00000201  00000+0  00000+0 0  9999
2 62455   0.0484  32.5696 0000952  56.3248 159.0957  1.00271264  4019
AGILA                   
1 62456U 24252C   26186.89196209 -.00000168  00000+0  00000+0 0  9999
2 62456   0.0602 123.3404 0001131  14.2655 259.5348  1.00270699  5341
NUVIEW BRAVO            
1 62457U 24252D   26187.13051448 -.00000201  00000+0  00000+0 0  9991
2 62457   0.0703 158.1999 0001713 351.2692  98.5263  1.00271680  3986
THURAYA-4               
1 62483U 25001A   26186.94192421  .00000153  00000+0  00000+0 0  9993
2 62483   0.0190  68.4043 0000046  75.5010 163.4164  1.00272958  4360
SHIJIAN-25 (SJ-25)      
1 62485U 25002A   26183.76460027 -.00000341  00000+0  00000+0 0  9993
2 62485   5.1479  61.0664 0051630 174.7980  87.5189  1.00272141  5514
TJS-14                  
1 62804U 25017A   26187.29323674  .00000130  00000+0  00000+0 0  9997
2 62804   0.7417 296.9135 0001539 290.1403 181.1683  1.00272661  5461
